[{"OBJECT_NAME":"STARLINK-4751","OBJECT_ID":"2022-114H","EPOCH":"2025-08-18T22:58:10.310592","MEAN_MOTION":15.08826843,"ECCENTRICITY":0.0001743,"INCLINATION":53.2169,"RA_OF_ASC_NODE":134.3639,"ARG_OF_PERICENTER":75.4038,"MEAN_ANOMALY":284.7148,"EPHEMERIS_TYPE":0,"CLASSIFICATION_TYPE":"U","NORAD_CAT_ID":53825,"ELEMENT_SET_NO":999,"REV_AT_EPOCH":16222,"BSTAR":0.00014658,"MEAN_MOTION_DOT":2.045e-5,"MEAN_MOTION_DDOT":0},{"OBJECT_NAME":"STARLINK-4756","OBJECT_ID":"2022-114J","EPOCH":"2025-08-18T22:31:38.732736","MEAN_MOTION":15.08836518,"ECCENTRICITY":0.0001466,"INCLINATION":53.2176,"RA_OF_ASC_NODE":134.2535,"ARG_OF_PERICENTER":89.4082,"MEAN_ANOMALY":270.7079,"EPHEMERIS_TYPE":0,"CLASSIFICATION_TYPE":"U","NORAD_CAT_ID":53826,"ELEMENT_SET_NO":999,"REV_AT_EPOCH":16222,"BSTAR":3.2671e-6,"MEAN_MOTION_DOT":-2.36e-6,"MEAN_MOTION_DDOT":0},{"OBJECT_NAME":"STARLINK-4764","OBJECT_ID":"2022-114K","EPOCH":"2025-08-19T03:33:43.062048","MEAN_MOTION":15.08838735,"ECCENTRICITY":0.00014,"INCLINATION":53.2169,"RA_OF_ASC_NODE":133.4278,"ARG_OF_PERICENTER":88.5259,"MEAN_ANOMALY":271.5893,"EPHEMERIS_TYPE":0,"CLASSIFICATION_TYPE":"U","NORAD_CAT_ID":53827,"ELEMENT_SET_NO":999,"REV_AT_EPOCH":16171,"BSTAR":1.4111e-5,"MEAN_MOTION_DOT":-6.3e-7,"MEAN_MOTION_DDOT":0},{"OBJECT_NAME":"STARLINK-4760","OBJECT_ID":"2022-114L","EPOCH":"2025-08-18T22:26:20.320224","MEAN_MOTION":15.08837587,"ECCENTRICITY":0.0001509,"INCLINATION":53.2175,"RA_OF_ASC_NODE":134.2309,"ARG_OF_PERICENTER":90.0208,"MEAN_ANOMALY":270.0957,"EPHEMERIS_TYPE":0,"CLASSIFICATION_TYPE":"U","NORAD_CAT_ID":53828,"ELEMENT_SET_NO":999,"REV_AT_EPOCH":16222,"BSTAR":3.1611e-5,"MEAN_MOTION_DOT":2.15e-6,"MEAN_MOTION_DDOT":0},{"OBJECT_NAME":"STARLINK-4759","OBJECT_ID":"2022-114M","EPOCH":"2025-08-19T00:17:38.383584","MEAN_MOTION":15.08838581,"ECCENTRICITY":0.0001403,"INCLINATION":53.2166,"RA_OF_ASC_NODE":133.9995,"ARG_OF_PERICENTER":88.0483,"MEAN_ANOMALY":272.067,"EPHEMERIS_TYPE":0,"CLASSIFICATION_TYPE":"U","NORAD_CAT_ID":53829,"ELEMENT_SET_NO":999,"REV_AT_EPOCH":16169,"BSTAR":-1.1383e-5,"MEAN_MOTION_DOT":-4.69e-6,"MEAN_MOTION_DDOT":0},{"OBJECT_NAME":"STARLINK-4761","OBJECT_ID":"2022-114N","EPOCH":"2025-08-18T22:15:43.592832","MEAN_MOTION":15.08838887,"ECCENTRICITY":0.0001394,"INCLINATION":53.2173,"RA_OF_ASC_NODE":134.1867,"ARG_OF_PERICENTER":86.988,"MEAN_ANOMALY":273.1271,"EPHEMERIS_TYPE":0,"CLASSIFICATION_TYPE":"U","NORAD_CAT_ID":53830,"ELEMENT_SET_NO":999,"REV_AT_EPOCH":16222,"BSTAR":2.6221e-5,"MEAN_MOTION_DOT":1.29e-6,"MEAN_MOTION_DDOT":0},{"OBJECT_NAME":"STARLINK-4649","OBJECT_ID":"2022-114P","EPOCH":"2025-08-18T21:01:34.032576","MEAN_MOTION":15.08836856,"ECCENTRICITY":0.000157,"INCLINATION":53.2179,"RA_OF_ASC_NODE":134.5718,"ARG_OF_PERICENTER":92.2101,"MEAN_ANOMALY":267.9071,"EPHEMERIS_TYPE":0,"CLASSIFICATION_TYPE":"U","NORAD_CAT_ID":53831,"ELEMENT_SET_NO":999,"REV_AT_EPOCH":16221,"BSTAR":6.6801e-6,"MEAN_MOTION_DOT":-1.82e-6,"MEAN_MOTION_DDOT":0},{"OBJECT_NAME":"STARLINK-4747","OBJECT_ID":"2022-114Q","EPOCH":"2025-08-19T01:15:53.172000","MEAN_MOTION":15.08843013,"ECCENTRICITY":0.000137,"INCLINATION":53.2171,"RA_OF_ASC_NODE":133.5442,"ARG_OF_PERICENTER":84.5083,"MEAN_ANOMALY":275.6066,"EPHEMERIS_TYPE":0,"CLASSIFICATION_TYPE":"U","NORAD_CAT_ID":53832,"ELEMENT_SET_NO":999,"REV_AT_EPOCH":16170,"BSTAR":-1.6097e-5,"MEAN_MOTION_DOT":-5.44e-6,"MEAN_MOTION_DDOT":0},{"OBJECT_NAME":"STARLINK-4771","OBJECT_ID":"2022-114R","EPOCH":"2025-08-18T23:57:48.341088","MEAN_MOTION":15.08938105,"ECCENTRICITY":0.0001169,"INCLINATION":53.2157,"RA_OF_ASC_NODE":133.9196,"ARG_OF_PERICENTER":57.7584,"MEAN_ANOMALY":302.3521,"EPHEMERIS_TYPE":0,"CLASSIFICATION_TYPE":"U","NORAD_CAT_ID":53833,"ELEMENT_SET_NO":999,"REV_AT_EPOCH":16169,"BSTAR":-0.0014041,"MEAN_MOTION_DOT":-0.00022624,"MEAN_MOTION_DDOT":0},{"OBJECT_NAME":"STARLINK-4737","OBJECT_ID":"2022-114S","EPOCH":"2025-08-19T01:05:16.670112","MEAN_MOTION":15.08836121,"ECCENTRICITY":0.0001597,"INCLINATION":53.2175,"RA_OF_ASC_NODE":133.4999,"ARG_OF_PERICENTER":91.7517,"MEAN_ANOMALY":268.3658,"EPHEMERIS_TYPE":0,"CLASSIFICATION_TYPE":"U","NORAD_CAT_ID":53834,"ELEMENT_SET_NO":999,"REV_AT_EPOCH":16170,"BSTAR":5.3991e-5,"MEAN_MOTION_DOT":5.71e-6,"MEAN_MOTION_DDOT":0},{"OBJECT_NAME":"STARLINK-4783","OBJECT_ID":"2022-114T","EPOCH":"2025-08-19T01:21:11.485152","MEAN_MOTION":15.08838624,"ECCENTRICITY":0.0001429,"INCLINATION":53.2172,"RA_OF_ASC_NODE":133.5687,"ARG_OF_PERICENTER":85.1529,"MEAN_ANOMALY":274.9626,"EPHEMERIS_TYPE":0,"CLASSIFICATION_TYPE":"U","NORAD_CAT_ID":53835,"ELEMENT_SET_NO":999,"REV_AT_EPOCH":16170,"BSTAR":2.4035e-5,"MEAN_MOTION_DOT":9.5e-7,"MEAN_MOTION_DDOT":0},{"OBJECT_NAME":"STARLINK-4778","OBJECT_ID":"2022-114U","EPOCH":"2025-08-19T02:15:34.351776","MEAN_MOTION":15.08850483,"ECCENTRICITY":0.0001159,"INCLINATION":53.2169,"RA_OF_ASC_NODE":123.813,"ARG_OF_PERICENTER":90.4429,"MEAN_ANOMALY":269.6696,"EPHEMERIS_TYPE":0,"CLASSIFICATION_TYPE":"U","NORAD_CAT_ID":53836,"ELEMENT_SET_NO":999,"REV_AT_EPOCH":16184,"BSTAR":-0.00010032,"MEAN_MOTION_DOT":-1.885e-5,"MEAN_MOTION_DDOT":0},{"OBJECT_NAME":"STARLINK-4776","OBJECT_ID":"2022-114V","EPOCH":"2025-08-19T02:45:58.050144","MEAN_MOTION":15.08838323,"ECCENTRICITY":0.0001604,"INCLINATION":53.2187,"RA_OF_ASC_NODE":133.2228,"ARG_OF_PERICENTER":89.0045,"MEAN_ANOMALY":271.1131,"EPHEMERIS_TYPE":0,"CLASSIFICATION_TYPE":"U","NORAD_CAT_ID":53837,"ELEMENT_SET_NO":999,"REV_AT_EPOCH":16171,"BSTAR":1.0575e-5,"MEAN_MOTION_DOT":-1.2e-6,"MEAN_MOTION_DDOT":0},{"OBJECT_NAME":"STARLINK-4773","OBJECT_ID":"2022-114W","EPOCH":"2025-08-19T00:34:53.619744","MEAN_MOTION":15.08835312,"ECCENTRICITY":0.0001411,"INCLINATION":53.2168,"RA_OF_ASC_NODE":124.0923,"ARG_OF_PERICENTER":86.269,"MEAN_ANOMALY":273.8464,"EPHEMERIS_TYPE":0,"CLASSIFICATION_TYPE":"U","NORAD_CAT_ID":53838,"ELEMENT_SET_NO":999,"REV_AT_EPOCH":16183,"BSTAR":3.2919e-5,"MEAN_MOTION_DOT":2.36e-6,"MEAN_MOTION_DDOT":0},{"OBJECT_NAME":"STARLINK-4784","OBJECT_ID":"2022-114X","EPOCH":"2025-08-19T02:20:53.165184","MEAN_MOTION":15.08842732,"ECCENTRICITY":0.000142,"INCLINATION":53.2176,"RA_OF_ASC_NODE":123.8409,"ARG_OF_PERICENTER":86.8918,"MEAN_ANOMALY":273.2237,"EPHEMERIS_TYPE":0,"CLASSIFICATION_TYPE":"U","NORAD_CAT_ID":53839,"ELEMENT_SET_NO":999,"REV_AT_EPOCH":16184,"BSTAR":4.6563e-5,"MEAN_MOTION_DOT":4.53e-6,"MEAN_MOTION_DDOT":0},{"OBJECT_NAME":"STARLINK-4766","OBJECT_ID":"2022-114Y","EPOCH":"2025-08-19T00:20:21.253632","MEAN_MOTION":15.08837819,"ECCENTRICITY":0.0001329,"INCLINATION":53.2166,"RA_OF_ASC_NODE":124.0278,"ARG_OF_PERICENTER":93.5861,"MEAN_ANOMALY":266.5283,"EPHEMERIS_TYPE":0,"CLASSIFICATION_TYPE":"U","NORAD_CAT_ID":53840,"ELEMENT_SET_NO":999,"REV_AT_EPOCH":16183,"BSTAR":4.0299e-5,"MEAN_MOTION_DOT":3.53e-6,"MEAN_MOTION_DDOT":0},{"OBJECT_NAME":"STARLINK-4750","OBJECT_ID":"2022-114Z","EPOCH":"2025-08-19T02:04:57.928512","MEAN_MOTION":15.08831815,"ECCENTRICITY":0.0001427,"INCLINATION":53.2174,"RA_OF_ASC_NODE":123.7717,"ARG_OF_PERICENTER":90.3417,"MEAN_ANOMALY":269.7738,"EPHEMERIS_TYPE":0,"CLASSIFICATION_TYPE":"U","NORAD_CAT_ID":53841,"ELEMENT_SET_NO":999,"REV_AT_EPOCH":16184,"BSTAR":-8.002e-5,"MEAN_MOTION_DOT":-1.561e-5,"MEAN_MOTION_DDOT":0}]
