STARLINK-4751           
1 53825U 22114H   25230.95706378  .00002045  00000+0  14658-3 0  9997
2 53825  53.2169 134.3639 0001743  75.4038 284.7148 15.08826843162224
STARLINK-4756           
1 53826U 22114J   25230.93864274 -.00000236  00000+0  32671-5 0  9994
2 53826  53.2176 134.2535 0001466  89.4082 270.7079 15.08836518162221
STARLINK-4764           
1 53827U 22114K   25231.14841507 -.00000063  00000+0  14111-4 0  9999
2 53827  53.2169 133.4278 0001400  88.5259 271.5893 15.08838735161712
STARLINK-4760           
1 53828U 22114L   25230.93495741  .00000215  00000+0  31611-4 0  9993
2 53828  53.2175 134.2309 0001509  90.0208 270.0957 15.08837587162222
STARLINK-4759           
1 53829U 22114M   25231.01224981 -.00000469  00000+0 -11383-4 0  9997
2 53829  53.2166 133.9995 0001403  88.0483 272.0670 15.08838581161694
STARLINK-4761           
1 53830U 22114N   25230.92758788  .00000129  00000+0  26221-4 0  9993
2 53830  53.2173 134.1867 0001394  86.9880 273.1271 15.08838887162220
STARLINK-4649           
1 53831U 22114P   25230.87608834 -.00000182  00000+0  66801-5 0  9993
2 53831  53.2179 134.5718 0001570  92.2101 267.9071 15.08836856162210
STARLINK-4747           
1 53832U 22114Q   25231.05269875 -.00000544  00000+0 -16097-4 0  9997
2 53832  53.2171 133.5442 0001370  84.5083 275.6066 15.08843013161703
STARLINK-4771           
1 53833U 22114R   25230.99847617 -.00022624  00000+0 -14041-2 0  9994
2 53833  53.2157 133.9196 0001169  57.7584 302.3521 15.08938105161691
STARLINK-4737           
1 53834U 22114S   25231.04533183  .00000571  00000+0  53991-4 0  9996
2 53834  53.2175 133.4999 0001597  91.7517 268.3658 15.08836121161706
STARLINK-4783           
1 53835U 22114T   25231.05638293  .00000095  00000+0  24035-4 0  9994
2 53835  53.2172 133.5687 0001429  85.1529 274.9626 15.08838624161701
STARLINK-4778           
1 53836U 22114U   25231.09414759 -.00001885  00000+0 -10032-3 0  9999
2 53836  53.2169 123.8130 0001159  90.4429 269.6696 15.08850483161841
STARLINK-4776           
1 53837U 22114V   25231.11525521 -.00000120  00000+0  10575-4 0  9996
2 53837  53.2187 133.2228 0001604  89.0045 271.1131 15.08838323161715
STARLINK-4773           
1 53838U 22114W   25231.02423171  .00000236  00000+0  32919-4 0  9998
2 53838  53.2168 124.0923 0001411  86.2690 273.8464 15.08835312161832
STARLINK-4784           
1 53839U 22114X   25231.09783756  .00000453  00000+0  46563-4 0  9995
2 53839  53.2176 123.8409 0001420  86.8918 273.2237 15.08842732161844
STARLINK-4766           
1 53840U 22114Y   25231.01413488  .00000353  00000+0  40299-4 0  9990
2 53840  53.2166 124.0278 0001329  93.5861 266.5283 15.08837819161837
STARLINK-4750           
1 53841U 22114Z   25231.08678158 -.00001561  00000+0 -80020-4 0  9995
2 53841  53.2174 123.7717 0001427  90.3417 269.7738 15.08831815161843
